SCD 1                   
1 22490U 93009B   26064.58998987  .00000594  00000+0  11142-3 0  9998
2 22490  24.9685 127.2007 0042181 121.3419 359.6163 14.46065065746107
TECHSAT 1B (GO-32)      
1 25397U 98043D   26064.45518666  .00000124  00000+0  73954-4 0  9997
2 25397  99.0023  54.6241 0001946 126.1502 233.9856 14.24404761436563
SCD 2                   
1 25504U 98060A   26064.13572660  .00000546  00000+0  10159-3 0  9990
2 25504  24.9967 353.8244 0016989 103.5483  25.6420 14.45480034445253
DLR-TUBSAT              
1 25757U 99029B   26064.54354602  .00000211  00000+0  63614-4 0  9999
2 25757  98.6661  56.6596 0013296 308.3968  51.6032 14.52395721418200
TERRA                   
1 25994U 99068A   26064.74927943  .00000631  00000+0  13779-3 0  9993
2 25994  97.9601 118.3344 0002458 160.9170 293.1291 14.61010039394503
MAROC-TUBSAT            
1 27004U 01056D   26064.45735890 -.00000018  00000+0  32302-4 0  9997
2 27004  99.8003 239.3788 0020383  50.1314 336.7648 13.70257807211982
AQUA                    
1 27424U 02022A   26064.79330044  .00001558  00000+0  32073-3 0  9999
2 27424  98.4169  32.0874 0000606  63.2661  49.8750 14.61966241268164
IRS-P6 (RESOURCESAT-1)  
1 28051U 03046A   26064.77981762  .00000191  00000+0  77980-4 0  9999
2 28051  98.2048 106.2937 0063027 293.0750 199.3991 14.36114121165682
SHIYAN-1 (SY-1)         
1 28220U 04012A   26064.68419784  .00017475  00000+0  58713-3 0  9996
2 28220  97.8775 136.2220 0006150  37.3548 322.8118 15.30894370195243
AURA                    
1 28376U 04026A   26064.79365109  .00001528  00000+0  32041-3 0  9994
2 28376  98.3306  20.4714 0001027  79.9546 280.1770 14.61138568151112
IRS-P5 (CARTOSAT-1)     
1 28649U 05017A   26064.65433144  .00001978  00000+0  20672-3 0  9994
2 28649  97.5416  92.3814 0002443  73.7059 286.4428 14.90748884128394
SINAH 1                 
1 28893U 05043D   26064.79076335  .00000724  00000+0  14714-3 0  9992
2 28893  98.2677 198.6067 0013472 237.3976 122.5926 14.64068268 85399
RESURS-DK 1             
1 29228U 06021A   26064.70023870  .00003818  00000+0  22356-3 0  9997
2 29228  69.9309 247.3433 0002334 165.5355 194.5878 15.12710295 86929
ARIRANG-2 (KOMPSAT-2)   
1 29268U 06031A   26064.79015255  .00000793  00000+0  15760-3 0  9999
2 29268  97.8292 254.2318 0015464  45.2976  10.5393 14.64585517 46348
LAPAN-TUBSAT            
1 29709U 07001A   26064.75193208  .00001511  00000+0  18008-3 0  9995
2 29709  98.1324  61.6638 0012532 156.1066 204.0732 14.85825560 35790
HAIYANG-1B              
1 31113U 07010A   26064.66208997  .00000162  00000+0  77202-4 0  9992
2 31113  98.3425  50.5644 0014123 144.0158 216.1979 14.30997965985820
COSMO-SKYMED 1          
1 31598U 07023A   26064.78640829  .00004861  00000+0  43303-3 0  9994
2 31598  97.8862 255.7874 0000884  97.5271 262.6050 14.96498096 14324
