[{"OBJECT_NAME":"SCD 1","OBJECT_ID":"1993-009B","EPOCH":"2026-03-05T14:09:35.124768","MEAN_MOTION":14.46065065,"ECCENTRICITY":0.0042181,"INCLINATION":24.9685,"RA_OF_ASC_NODE":127.2007,"ARG_OF_PERICENTER":121.3419,"MEAN_ANOMALY":359.6163,"EPHEMERIS_TYPE":0,"CLASSIFICATION_TYPE":"U","NORAD_CAT_ID":22490,"ELEMENT_SET_NO":999,"REV_AT_EPOCH":74610,"BSTAR":0.00011142,"MEAN_MOTION_DOT":5.94e-6,"MEAN_MOTION_DDOT":0},{"OBJECT_NAME":"TECHSAT 1B (GO-32)","OBJECT_ID":"1998-043D","EPOCH":"2026-03-05T10:55:28.127424","MEAN_MOTION":14.24404761,"ECCENTRICITY":0.0001946,"INCLINATION":99.0023,"RA_OF_ASC_NODE":54.6241,"ARG_OF_PERICENTER":126.1502,"MEAN_ANOMALY":233.9856,"EPHEMERIS_TYPE":0,"CLASSIFICATION_TYPE":"U","NORAD_CAT_ID":25397,"ELEMENT_SET_NO":999,"REV_AT_EPOCH":43656,"BSTAR":7.3954e-5,"MEAN_MOTION_DOT":1.24e-6,"MEAN_MOTION_DDOT":0},{"OBJECT_NAME":"SCD 2","OBJECT_ID":"1998-060A","EPOCH":"2026-03-05T03:15:26.778240","MEAN_MOTION":14.45480034,"ECCENTRICITY":0.00169891,"INCLINATION":24.9967,"RA_OF_ASC_NODE":353.8244,"ARG_OF_PERICENTER":103.5483,"MEAN_ANOMALY":25.642,"EPHEMERIS_TYPE":0,"CLASSIFICATION_TYPE":"U","NORAD_CAT_ID":25504,"ELEMENT_SET_NO":999,"REV_AT_EPOCH":44525,"BSTAR":0.00010159419,"MEAN_MOTION_DOT":5.46e-6,"MEAN_MOTION_DDOT":0},{"OBJECT_NAME":"DLR-TUBSAT","OBJECT_ID":"1999-029B","EPOCH":"2026-03-05T13:02:42.376128","MEAN_MOTION":14.52395721,"ECCENTRICITY":0.0013296,"INCLINATION":98.6661,"RA_OF_ASC_NODE":56.6596,"ARG_OF_PERICENTER":308.3968,"MEAN_ANOMALY":51.6032,"EPHEMERIS_TYPE":0,"CLASSIFICATION_TYPE":"U","NORAD_CAT_ID":25757,"ELEMENT_SET_NO":999,"REV_AT_EPOCH":41820,"BSTAR":6.3614e-5,"MEAN_MOTION_DOT":2.11e-6,"MEAN_MOTION_DDOT":0},{"OBJECT_NAME":"TERRA","OBJECT_ID":"1999-068A","EPOCH":"2026-03-05T17:58:57.742752","MEAN_MOTION":14.61010039,"ECCENTRICITY":0.0002458,"INCLINATION":97.9601,"RA_OF_ASC_NODE":118.3344,"ARG_OF_PERICENTER":160.917,"MEAN_ANOMALY":293.1291,"EPHEMERIS_TYPE":0,"CLASSIFICATION_TYPE":"U","NORAD_CAT_ID":25994,"ELEMENT_SET_NO":999,"REV_AT_EPOCH":39450,"BSTAR":0.00013779,"MEAN_MOTION_DOT":6.31e-6,"MEAN_MOTION_DDOT":0},{"OBJECT_NAME":"MAROC-TUBSAT","OBJECT_ID":"2001-056D","EPOCH":"2026-03-05T10:58:35.808960","MEAN_MOTION":13.70257807,"ECCENTRICITY":0.0020383,"INCLINATION":99.8003,"RA_OF_ASC_NODE":239.3788,"ARG_OF_PERICENTER":50.1314,"MEAN_ANOMALY":336.7648,"EPHEMERIS_TYPE":0,"CLASSIFICATION_TYPE":"U","NORAD_CAT_ID":27004,"ELEMENT_SET_NO":999,"REV_AT_EPOCH":21198,"BSTAR":3.2302e-5,"MEAN_MOTION_DOT":-1.8e-7,"MEAN_MOTION_DDOT":0},{"OBJECT_NAME":"AQUA","OBJECT_ID":"2002-022A","EPOCH":"2026-03-05T19:02:21.158016","MEAN_MOTION":14.61966241,"ECCENTRICITY":6.06e-5,"INCLINATION":98.4169,"RA_OF_ASC_NODE":32.0874,"ARG_OF_PERICENTER":63.2661,"MEAN_ANOMALY":49.875,"EPHEMERIS_TYPE":0,"CLASSIFICATION_TYPE":"U","NORAD_CAT_ID":27424,"ELEMENT_SET_NO":999,"REV_AT_EPOCH":26816,"BSTAR":0.00032073,"MEAN_MOTION_DOT":1.558e-5,"MEAN_MOTION_DDOT":0},{"OBJECT_NAME":"IRS-P6 (RESOURCESAT-1)","OBJECT_ID":"2003-046A","EPOCH":"2026-03-05T18:42:56.242368","MEAN_MOTION":14.36114121,"ECCENTRICITY":0.0063027,"INCLINATION":98.2048,"RA_OF_ASC_NODE":106.2937,"ARG_OF_PERICENTER":293.075,"MEAN_ANOMALY":199.3991,"EPHEMERIS_TYPE":0,"CLASSIFICATION_TYPE":"U","NORAD_CAT_ID":28051,"ELEMENT_SET_NO":999,"REV_AT_EPOCH":16568,"BSTAR":7.798e-5,"MEAN_MOTION_DOT":1.91e-6,"MEAN_MOTION_DDOT":0},{"OBJECT_NAME":"SHIYAN-1 (SY-1)","OBJECT_ID":"2004-012A","EPOCH":"2026-03-05T16:25:14.693376","MEAN_MOTION":15.3089437,"ECCENTRICITY":0.000615,"INCLINATION":97.8775,"RA_OF_ASC_NODE":136.222,"ARG_OF_PERICENTER":37.3548,"MEAN_ANOMALY":322.8118,"EPHEMERIS_TYPE":0,"CLASSIFICATION_TYPE":"U","NORAD_CAT_ID":28220,"ELEMENT_SET_NO":999,"REV_AT_EPOCH":19524,"BSTAR":0.00058713,"MEAN_MOTION_DOT":0.00017475,"MEAN_MOTION_DDOT":0},{"OBJECT_NAME":"AURA","OBJECT_ID":"2004-026A","EPOCH":"2026-03-05T19:02:51.454176","MEAN_MOTION":14.61138568,"ECCENTRICITY":0.0001027,"INCLINATION":98.3306,"RA_OF_ASC_NODE":20.4714,"ARG_OF_PERICENTER":79.9546,"MEAN_ANOMALY":280.177,"EPHEMERIS_TYPE":0,"CLASSIFICATION_TYPE":"U","NORAD_CAT_ID":28376,"ELEMENT_SET_NO":999,"REV_AT_EPOCH":15111,"BSTAR":0.00032041,"MEAN_MOTION_DOT":1.528e-5,"MEAN_MOTION_DDOT":0},{"OBJECT_NAME":"IRS-P5 (CARTOSAT-1)","OBJECT_ID":"2005-017A","EPOCH":"2026-03-05T15:42:14.236416","MEAN_MOTION":14.90748884,"ECCENTRICITY":0.0002443,"INCLINATION":97.5416,"RA_OF_ASC_NODE":92.3814,"ARG_OF_PERICENTER":73.7059,"MEAN_ANOMALY":286.4428,"EPHEMERIS_TYPE":0,"CLASSIFICATION_TYPE":"U","NORAD_CAT_ID":28649,"ELEMENT_SET_NO":999,"REV_AT_EPOCH":12839,"BSTAR":0.00020672,"MEAN_MOTION_DOT":1.978e-5,"MEAN_MOTION_DDOT":0},{"OBJECT_NAME":"SINAH 1","OBJECT_ID":"2005-043D","EPOCH":"2026-03-05T18:58:41.953440","MEAN_MOTION":14.64068268,"ECCENTRICITY":0.0013472,"INCLINATION":98.2677,"RA_OF_ASC_NODE":198.6067,"ARG_OF_PERICENTER":237.3976,"MEAN_ANOMALY":122.5926,"EPHEMERIS_TYPE":0,"CLASSIFICATION_TYPE":"U","NORAD_CAT_ID":28893,"ELEMENT_SET_NO":999,"REV_AT_EPOCH":8539,"BSTAR":0.00014714,"MEAN_MOTION_DOT":7.24e-6,"MEAN_MOTION_DDOT":0},{"OBJECT_NAME":"RESURS-DK 1","OBJECT_ID":"2006-021A","EPOCH":"2026-03-05T16:48:20.623680","MEAN_MOTION":15.12710295,"ECCENTRICITY":0.0002334,"INCLINATION":69.9309,"RA_OF_ASC_NODE":247.3433,"ARG_OF_PERICENTER":165.5355,"MEAN_ANOMALY":194.5878,"EPHEMERIS_TYPE":0,"CLASSIFICATION_TYPE":"U","NORAD_CAT_ID":29228,"ELEMENT_SET_NO":999,"REV_AT_EPOCH":8692,"BSTAR":0.00022356,"MEAN_MOTION_DOT":3.818e-5,"MEAN_MOTION_DDOT":0},{"OBJECT_NAME":"ARIRANG-2 (KOMPSAT-2)","OBJECT_ID":"2006-031A","EPOCH":"2026-03-05T18:57:49.180320","MEAN_MOTION":14.64585517,"ECCENTRICITY":0.0015464,"INCLINATION":97.8292,"RA_OF_ASC_NODE":254.2318,"ARG_OF_PERICENTER":45.2976,"MEAN_ANOMALY":10.5393,"EPHEMERIS_TYPE":0,"CLASSIFICATION_TYPE":"U","NORAD_CAT_ID":29268,"ELEMENT_SET_NO":999,"REV_AT_EPOCH":4634,"BSTAR":0.0001576,"MEAN_MOTION_DOT":7.93e-6,"MEAN_MOTION_DDOT":0},{"OBJECT_NAME":"LAPAN-TUBSAT","OBJECT_ID":"2007-001A","EPOCH":"2026-03-05T18:02:46.931712","MEAN_MOTION":14.8582556,"ECCENTRICITY":0.0012532,"INCLINATION":98.1324,"RA_OF_ASC_NODE":61.6638,"ARG_OF_PERICENTER":156.1066,"MEAN_ANOMALY":204.0732,"EPHEMERIS_TYPE":0,"CLASSIFICATION_TYPE":"U","NORAD_CAT_ID":29709,"ELEMENT_SET_NO":999,"REV_AT_EPOCH":3579,"BSTAR":0.00018008,"MEAN_MOTION_DOT":1.511e-5,"MEAN_MOTION_DDOT":0},{"OBJECT_NAME":"HAIYANG-1B","OBJECT_ID":"2007-010A","EPOCH":"2026-03-05T15:53:24.573408","MEAN_MOTION":14.30997965,"ECCENTRICITY":0.0014123,"INCLINATION":98.3425,"RA_OF_ASC_NODE":50.5644,"ARG_OF_PERICENTER":144.0158,"MEAN_ANOMALY":216.1979,"EPHEMERIS_TYPE":0,"CLASSIFICATION_TYPE":"U","NORAD_CAT_ID":31113,"ELEMENT_SET_NO":999,"REV_AT_EPOCH":98582,"BSTAR":7.7202e-5,"MEAN_MOTION_DOT":1.62e-6,"MEAN_MOTION_DDOT":0},{"OBJECT_NAME":"COSMO-SKYMED 1","OBJECT_ID":"2007-023A","EPOCH":"2026-03-05T18:52:25.676256","MEAN_MOTION":14.96498096,"ECCENTRICITY":8.84e-5,"INCLINATION":97.8862,"RA_OF_ASC_NODE":255.7874,"ARG_OF_PERICENTER":97.5271,"MEAN_ANOMALY":262.605,"EPHEMERIS_TYPE":0,"CLASSIFICATION_TYPE":"U","NORAD_CAT_ID":31598,"ELEMENT_SET_NO":999,"REV_AT_EPOCH":1432,"BSTAR":0.00043303,"MEAN_MOTION_DOT":4.861e-5,"MEAN_MOTION_DDOT":0}]
